SL-4 R/B                
1 39679U 14021B   25357.21526362  .00011211  00000+0  26752-3 0  9991
2 39679  51.6086 349.6754 0100948 183.9809 176.0382 15.36901259644507
ALOS-2                  
1 39766U 14029A   25357.83483855  .00002154  00000+0  29528-3 0  9993
2 39766  97.9228  92.5233 0001376  96.9440 263.1928 14.79470866625650
YAOGAN-29               
1 41038U 15069A   25357.88584556  .00000325  00000+0  46738-4 0  9999
2 41038  98.0204  21.0923 0000803 170.5608 189.5620 14.82892738544642
ASTRO-H (HITOMI)        
1 41337U 16012A   25357.07253072  .00003678  00000+0  21854-3 0  9992
2 41337  30.9987 130.7536 0009711 282.3385  77.6166 15.09415250540644
HXMT (HUIYAN)           
1 42758U 17034A   25357.72585814  .00005840  00000+0  30396-3 0  9993
2 42758  43.0146  78.6594 0031120 115.6090 244.7978 15.16357193471008
CZ-2C R/B               
1 43521U 18054D   25356.62171126  .00112353  00000+0  68079-3 0  9997
2 43521  35.1335 113.7810 0014965 242.8491 117.0717 15.76065101416617
SAOCOM 1A               
1 43641U 18076A   25357.81114016  .00000429  00000+0  60447-4 0  9993
2 43641  97.8839 182.0719 0001368  83.3775 276.7593 14.82143539390127
H-2A R/B                
1 43682U 18084L   25357.10510980  .00020264  00000+0  54245-3 0  9996
2 43682  98.8767 193.3353 0026649 290.1503  69.6871 15.37728641393998
SAOCOM 1B               
1 46265U 20059A   25357.84240750  .00000359  00000+0  51622-4 0  9997
2 46265  97.8836 181.2027 0001429  85.2052 274.9324 14.82148395287514
CSS (TIANHE)            
1 48274U 21035A   25357.79418811  .00014858  00000+0  18485-3 0  9991
2 48274  41.4685 309.5739 0008049 128.7040 231.4519 15.59610361265751
COSMOS 2550             
1 48865U 21056A   25357.87654187 -.00000107  00000+0  25690-5 0  9998
2 48865  67.1452 270.2480 0008337 268.9328  91.0871 15.33837558251833
CZ-2C R/B               
1 52794U 22058K   25357.71086963  .00025400  00000+0  44887-3 0  9990
2 52794  50.1920 347.5777 0044741 243.8099 115.8265 15.49015030198331
