CCSDS_OMM_VERS = 2.0
CREATION_DATE  = 
ORIGINATOR     = 

OBJECT_NAME    = SL-4 R/B
OBJECT_ID      = 2014-021B
CENTER_NAME    = EARTH
REF_FRAME      = TEME
TIME_SYSTEM    = UTC
MEAN_ELEMENT_THEORY = SGP/SGP4

EPOCH          = 2025-12-23T05:09:58.776768
MEAN_MOTION    = 15.36901259
ECCENTRICITY   = .0100948
INCLINATION    = 51.6086
RA_OF_ASC_NODE = 349.6754
ARG_OF_PERICENTER = 183.9809
MEAN_ANOMALY   = 176.0382

EPHEMERIS_TYPE = 0
CLASSIFICATION_TYPE = U
NORAD_CAT_ID   = 39679
ELEMENT_SET_NO = 999
REV_AT_EPOCH   = 64450
BSTAR          = .26752079E-3
MEAN_MOTION_DOT = .11211E-3
MEAN_MOTION_DDOT = 0

CCSDS_OMM_VERS = 2.0
CREATION_DATE  = 
ORIGINATOR     = 

OBJECT_NAME    = ALOS-2
OBJECT_ID      = 2014-029A
CENTER_NAME    = EARTH
REF_FRAME      = TEME
TIME_SYSTEM    = UTC
MEAN_ELEMENT_THEORY = SGP/SGP4

EPOCH          = 2025-12-23T20:02:10.050720
MEAN_MOTION    = 14.79470866
ECCENTRICITY   = .0001376
INCLINATION    = 97.9228
RA_OF_ASC_NODE = 92.5233
ARG_OF_PERICENTER = 96.9440
MEAN_ANOMALY   = 263.1928

EPHEMERIS_TYPE = 0
CLASSIFICATION_TYPE = U
NORAD_CAT_ID   = 39766
ELEMENT_SET_NO = 999
REV_AT_EPOCH   = 62565
BSTAR          = .29528E-3
MEAN_MOTION_DOT = .2154E-4
MEAN_MOTION_DDOT = 0

CCSDS_OMM_VERS = 2.0
CREATION_DATE  = 
ORIGINATOR     = 

OBJECT_NAME    = YAOGAN-29
OBJECT_ID      = 2015-069A
CENTER_NAME    = EARTH
REF_FRAME      = TEME
TIME_SYSTEM    = UTC
MEAN_ELEMENT_THEORY = SGP/SGP4

EPOCH          = 2025-12-23T21:15:37.056384
MEAN_MOTION    = 14.82892738
ECCENTRICITY   = .0000803
INCLINATION    = 98.0204
RA_OF_ASC_NODE = 21.0923
ARG_OF_PERICENTER = 170.5608
MEAN_ANOMALY   = 189.5620

EPHEMERIS_TYPE = 0
CLASSIFICATION_TYPE = U
NORAD_CAT_ID   = 41038
ELEMENT_SET_NO = 999
REV_AT_EPOCH   = 54464
BSTAR          = .46738E-4
MEAN_MOTION_DOT = .325E-5
MEAN_MOTION_DDOT = 0

CCSDS_OMM_VERS = 2.0
CREATION_DATE  = 
ORIGINATOR     = 

OBJECT_NAME    = ASTRO-H (HITOMI)
OBJECT_ID      = 2016-012A
CENTER_NAME    = EARTH
REF_FRAME      = TEME
TIME_SYSTEM    = UTC
MEAN_ELEMENT_THEORY = SGP/SGP4

EPOCH          = 2025-12-23T01:44:26.654208
MEAN_MOTION    = 15.09415250
ECCENTRICITY   = .00097119
INCLINATION    = 30.9987
RA_OF_ASC_NODE = 130.7536
ARG_OF_PERICENTER = 282.3385
MEAN_ANOMALY   = 77.6166

EPHEMERIS_TYPE = 0
CLASSIFICATION_TYPE = U
NORAD_CAT_ID   = 41337
ELEMENT_SET_NO = 999
REV_AT_EPOCH   = 54064
BSTAR          = .21853553E-3
MEAN_MOTION_DOT = .3678E-4
MEAN_MOTION_DDOT = 0

CCSDS_OMM_VERS = 2.0
CREATION_DATE  = 
ORIGINATOR     = 

OBJECT_NAME    = HXMT (HUIYAN)
OBJECT_ID      = 2017-034A
CENTER_NAME    = EARTH
REF_FRAME      = TEME
TIME_SYSTEM    = UTC
MEAN_ELEMENT_THEORY = SGP/SGP4

EPOCH          = 2025-12-23T17:25:14.143296
MEAN_MOTION    = 15.16357193
ECCENTRICITY   = .003112
INCLINATION    = 43.0146
RA_OF_ASC_NODE = 78.6594
ARG_OF_PERICENTER = 115.6090
MEAN_ANOMALY   = 244.7978

EPHEMERIS_TYPE = 0
CLASSIFICATION_TYPE = U
NORAD_CAT_ID   = 42758
ELEMENT_SET_NO = 999
REV_AT_EPOCH   = 47100
BSTAR          = .30396E-3
MEAN_MOTION_DOT = .584E-4
MEAN_MOTION_DDOT = 0

CCSDS_OMM_VERS = 2.0
CREATION_DATE  = 
ORIGINATOR     = 

OBJECT_NAME    = CZ-2C R/B
OBJECT_ID      = 2018-054D
CENTER_NAME    = EARTH
REF_FRAME      = TEME
TIME_SYSTEM    = UTC
MEAN_ELEMENT_THEORY = SGP/SGP4

EPOCH          = 2025-12-22T14:55:15.852864
MEAN_MOTION    = 15.76065101
ECCENTRICITY   = .00149654
INCLINATION    = 35.1335
RA_OF_ASC_NODE = 113.7810
ARG_OF_PERICENTER = 242.8491
MEAN_ANOMALY   = 117.0717

EPHEMERIS_TYPE = 0
CLASSIFICATION_TYPE = U
NORAD_CAT_ID   = 43521
ELEMENT_SET_NO = 999
REV_AT_EPOCH   = 41661
BSTAR          = .68078535E-3
MEAN_MOTION_DOT = .112353E-2
MEAN_MOTION_DDOT = 0

CCSDS_OMM_VERS = 2.0
CREATION_DATE  = 
ORIGINATOR     = 

OBJECT_NAME    = SAOCOM 1A
OBJECT_ID      = 2018-076A
CENTER_NAME    = EARTH
REF_FRAME      = TEME
TIME_SYSTEM    = UTC
MEAN_ELEMENT_THEORY = SGP/SGP4

EPOCH          = 2025-12-23T19:28:02.509824
MEAN_MOTION    = 14.82143539
ECCENTRICITY   = .0001368
INCLINATION    = 97.8839
RA_OF_ASC_NODE = 182.0719
ARG_OF_PERICENTER = 83.3775
MEAN_ANOMALY   = 276.7593

EPHEMERIS_TYPE = 0
CLASSIFICATION_TYPE = U
NORAD_CAT_ID   = 43641
ELEMENT_SET_NO = 999
REV_AT_EPOCH   = 39012
BSTAR          = .60447E-4
MEAN_MOTION_DOT = .429E-5
MEAN_MOTION_DDOT = 0

CCSDS_OMM_VERS = 2.0
CREATION_DATE  = 
ORIGINATOR     = 

OBJECT_NAME    = H-2A R/B
OBJECT_ID      = 2018-084L
CENTER_NAME    = EARTH
REF_FRAME      = TEME
TIME_SYSTEM    = UTC
MEAN_ELEMENT_THEORY = SGP/SGP4

EPOCH          = 2025-12-23T02:31:21.486720
MEAN_MOTION    = 15.37728641
ECCENTRICITY   = .00266495
INCLINATION    = 98.8767
RA_OF_ASC_NODE = 193.3353
ARG_OF_PERICENTER = 290.1503
MEAN_ANOMALY   = 69.6871

EPHEMERIS_TYPE = 0
CLASSIFICATION_TYPE = U
NORAD_CAT_ID   = 43682
ELEMENT_SET_NO = 999
REV_AT_EPOCH   = 39399
BSTAR          = .54244929E-3
MEAN_MOTION_DOT = .20264E-3
MEAN_MOTION_DDOT = 0

CCSDS_OMM_VERS = 2.0
CREATION_DATE  = 
ORIGINATOR     = 

OBJECT_NAME    = SAOCOM 1B
OBJECT_ID      = 2020-059A
CENTER_NAME    = EARTH
REF_FRAME      = TEME
TIME_SYSTEM    = UTC
MEAN_ELEMENT_THEORY = SGP/SGP4

EPOCH          = 2025-12-23T20:13:04.008000
MEAN_MOTION    = 14.82148395
ECCENTRICITY   = .0001429
INCLINATION    = 97.8836
RA_OF_ASC_NODE = 181.2027
ARG_OF_PERICENTER = 85.2052
MEAN_ANOMALY   = 274.9324

EPHEMERIS_TYPE = 0
CLASSIFICATION_TYPE = U
NORAD_CAT_ID   = 46265
ELEMENT_SET_NO = 999
REV_AT_EPOCH   = 28751
BSTAR          = .51622E-4
MEAN_MOTION_DOT = .359E-5
MEAN_MOTION_DDOT = 0

CCSDS_OMM_VERS = 2.0
CREATION_DATE  = 
ORIGINATOR     = 

OBJECT_NAME    = CSS (TIANHE)
OBJECT_ID      = 2021-035A
CENTER_NAME    = EARTH
REF_FRAME      = TEME
TIME_SYSTEM    = UTC
MEAN_ELEMENT_THEORY = SGP/SGP4

EPOCH          = 2025-12-23T19:03:37.852704
MEAN_MOTION    = 15.59610361
ECCENTRICITY   = .0008049
INCLINATION    = 41.4685
RA_OF_ASC_NODE = 309.5739
ARG_OF_PERICENTER = 128.7040
MEAN_ANOMALY   = 231.4519

EPHEMERIS_TYPE = 0
CLASSIFICATION_TYPE = U
NORAD_CAT_ID   = 48274
ELEMENT_SET_NO = 999
REV_AT_EPOCH   = 26575
BSTAR          = .18485E-3
MEAN_MOTION_DOT = .14858E-3
MEAN_MOTION_DDOT = 0

CCSDS_OMM_VERS = 2.0
CREATION_DATE  = 
ORIGINATOR     = 

OBJECT_NAME    = COSMOS 2550
OBJECT_ID      = 2021-056A
CENTER_NAME    = EARTH
REF_FRAME      = TEME
TIME_SYSTEM    = UTC
MEAN_ELEMENT_THEORY = SGP/SGP4

EPOCH          = 2025-12-23T21:02:13.217568
MEAN_MOTION    = 15.33837558
ECCENTRICITY   = .0008337
INCLINATION    = 67.1452
RA_OF_ASC_NODE = 270.2480
ARG_OF_PERICENTER = 268.9328
MEAN_ANOMALY   = 91.0871

EPHEMERIS_TYPE = 0
CLASSIFICATION_TYPE = U
NORAD_CAT_ID   = 48865
ELEMENT_SET_NO = 999
REV_AT_EPOCH   = 25183
BSTAR          = .2569E-5
MEAN_MOTION_DOT = -.107E-5
MEAN_MOTION_DDOT = 0

CCSDS_OMM_VERS = 2.0
CREATION_DATE  = 
ORIGINATOR     = 

OBJECT_NAME    = CZ-2C R/B
OBJECT_ID      = 2022-058K
CENTER_NAME    = EARTH
REF_FRAME      = TEME
TIME_SYSTEM    = UTC
MEAN_ELEMENT_THEORY = SGP/SGP4

EPOCH          = 2025-12-23T17:03:39.136032
MEAN_MOTION    = 15.49015030
ECCENTRICITY   = .0044741
INCLINATION    = 50.1920
RA_OF_ASC_NODE = 347.5777
ARG_OF_PERICENTER = 243.8099
MEAN_ANOMALY   = 115.8265

EPHEMERIS_TYPE = 0
CLASSIFICATION_TYPE = U
NORAD_CAT_ID   = 52794
ELEMENT_SET_NO = 999
REV_AT_EPOCH   = 19833
BSTAR          = .44887E-3
MEAN_MOTION_DOT = .254E-3
MEAN_MOTION_DDOT = 0

